{
  "type": "FeatureCollection",
  "features": [
    {
      "type": "Feature",
      "properties": {
        "norad_id": 66876,
        "name": "STARLINK-35702",
        "group": "last-30-days",
        "lat": -3.994209184839095,
        "lon": -99.83487278611777,
        "alt_km": 344.9438213918693,
        "timestamp": "2025-12-20T07:33:49.515132+00:00",
        "meta_object_name": "STARLINK-35702",
        "meta_object_id": "2025-281AE",
        "meta_epoch": "2025-12-19T22:00:01.999584",
        "meta_mean_motion": 15.75078598,
        "meta_eccentricity": 0.00016573,
        "meta_inclination": 43.0024,
        "meta_ra_of_asc_node": 78.2861,
        "meta_arg_of_pericenter": 278.1816,
        "meta_mean_anomaly": 165.472,
        "meta_ephemeris_type": 0,
        "meta_classification_type": "U",
        "meta_norad_cat_id": 66876,
        "meta_element_set_no": 999,
        "meta_rev_at_epoch": 258,
        "meta_bstar": -0.0004641101,
        "meta_mean_motion_dot": -0.00071293,
        "meta_mean_motion_ddot": 0,
        "tle_line1": "1 66876U 25281AE  25353.91668981 -.00071293  00000+0 -46411-3 0  9999",
        "tle_line2": "2 66876  43.0024  78.2861 0001657 278.1816 165.4720 15.75078598  2587"
      },
      "geometry": {
        "type": "Point",
        "coordinates": [
          -99.83487278611777,
          -3.994209184839095
        ]
      }
    },
    {
      "type": "Feature",
      "properties": {
        "norad_id": 66877,
        "name": "ZQ-3 R/B",
        "group": "last-30-days",
        "lat": 23.70763113206334,
        "lon": 44.94609989187825,
        "alt_km": 1093.7295351114035,
        "timestamp": "2025-12-20T07:33:49.515145+00:00",
        "meta_object_name": "ZQ-3 R/B",
        "meta_object_id": "2025-282A",
        "meta_epoch": "2025-12-19T20:01:46.316640",
        "meta_mean_motion": 14.73971874,
        "meta_eccentricity": 0.07191515,
        "meta_inclination": 56.9493,
        "meta_ra_of_asc_node": 30.2137,
        "meta_arg_of_pericenter": 232.403,
        "meta_mean_anomaly": 120.9601,
        "meta_ephemeris_type": 0,
        "meta_classification_type": "U",
        "meta_norad_cat_id": 66877,
        "meta_element_set_no": 999,
        "meta_rev_at_epoch": 243,
        "meta_bstar": 0.00017793386,
        "meta_mean_motion_dot": 0.00980728,
        "meta_mean_motion_ddot": 7.735137e-06,
        "tle_line1": "1 66877U 25282A   25353.83456385  .00980728  77351-5  17793-3 0  9995",
        "tle_line2": "2 66877  56.9493  30.2137 0719151 232.4030 120.9601 14.73971874  2435"
      },
      "geometry": {
        "type": "Point",
        "coordinates": [
          44.94609989187825,
          23.70763113206334
        ]
      }
    },
    {
      "type": "Feature",
      "properties": {
        "norad_id": 66878,
        "name": "STARLINK-35866",
        "group": "last-30-days",
        "lat": -39.98262639414336,
        "lon": -105.21759780074343,
        "alt_km": 351.56786030538933,
        "timestamp": "2025-12-20T07:33:49.515155+00:00",
        "meta_object_name": "STARLINK-35866",
        "meta_object_id": "2025-283A",
        "meta_epoch": "2025-12-19T22:00:01.999584",
        "meta_mean_motion": 15.75468771,
        "meta_eccentricity": 8.719e-05,
        "meta_inclination": 53.1567,
        "meta_ra_of_asc_node": 37.8017,
        "meta_arg_of_pericenter": 87.8137,
        "meta_mean_anomaly": 45.1165,
        "meta_ephemeris_type": 0,
        "meta_classification_type": "U",
        "meta_norad_cat_id": 66878,
        "meta_element_set_no": 999,
        "meta_rev_at_epoch": 358,
        "meta_bstar": -0.0099241789,
        "meta_mean_motion_dot": -0.0136818,
        "meta_mean_motion_ddot": 0,
        "tle_line1": "1 66878U 25283A   25353.91668981 -.01368180  00000+0 -99242-2 0  9997",
        "tle_line2": "2 66878  53.1567  37.8017 0000871  87.8137  45.1165 15.75468771  3589"
      },
      "geometry": {
        "type": "Point",
        "coordinates": [
          -105.21759780074343,
          -39.98262639414336
        ]
      }
    },
    {
      "type": "Feature",
      "properties": {
        "norad_id": 66879,
        "name": "STARLINK-35749",
        "group": "last-30-days",
        "lat": -42.29601390905966,
        "lon": -101.17216775050748,
        "alt_km": 352.18889296647103,
        "timestamp": "2025-12-20T07:33:49.515165+00:00",
        "meta_object_name": "STARLINK-35749",
        "meta_object_id": "2025-283B",
        "meta_epoch": "2025-12-19T22:00:01.999584",
        "meta_mean_motion": 15.75210772,
        "meta_eccentricity": 0.00011038,
        "meta_inclination": 53.1568,
        "meta_ra_of_asc_node": 37.7925,
        "meta_arg_of_pericenter": 71.8066,
        "meta_mean_anomaly": 65.234,
        "meta_ephemeris_type": 0,
        "meta_classification_type": "U",
        "meta_norad_cat_id": 66879,
        "meta_element_set_no": 999,
        "meta_rev_at_epoch": 358,
        "meta_bstar": -0.0089020935,
        "meta_mean_motion_dot": -0.0120771,
        "meta_mean_motion_ddot": 0,
        "tle_line1": "1 66879U 25283B   25353.91668981 -.01207710  00000+0 -89021-2 0  9993",
        "tle_line2": "2 66879  53.1568  37.7925 0001103  71.8066  65.2340 15.75210772  3585"
      },
      "geometry": {
        "type": "Point",
        "coordinates": [
          -101.17216775050748,
          -42.29601390905966
        ]
      }
    },
    {
      "type": "Feature",
      "properties": {
        "norad_id": 66880,
        "name": "STARLINK-35844",
        "group": "last-30-days",
        "lat": -41.1555245290148,
        "lon": -103.2332192362242,
        "alt_km": 351.7591497599187,
        "timestamp": "2025-12-20T07:33:49.515175+00:00",
        "meta_object_name": "STARLINK-35844",
        "meta_object_id": "2025-283C",
        "meta_epoch": "2025-12-19T22:00:01.999584",
        "meta_mean_motion": 15.75351958,
        "meta_eccentricity": 7.797e-05,
        "meta_inclination": 53.1567,
        "meta_ra_of_asc_node": 37.7972,
        "meta_arg_of_pericenter": 78.3932,
        "meta_mean_anomaly": 56.5788,
        "meta_ephemeris_type": 0,
        "meta_classification_type": "U",
        "meta_norad_cat_id": 66880,
        "meta_element_set_no": 999,
        "meta_rev_at_epoch": 358,
        "meta_bstar": -0.0094628808,
        "meta_mean_motion_dot": -0.0130518,
        "meta_mean_motion_ddot": 0,
        "tle_line1": "1 66880U 25283C   25353.91668981 -.01305180  00000+0 -94629-2 0  9995",
        "tle_line2": "2 66880  53.1567  37.7972 0000779  78.3932  56.5788 15.75351958  3581"
      },
      "geometry": {
        "type": "Point",
        "coordinates": [
          -103.2332192362242,
          -41.1555245290148
        ]
      }
    },
    {
      "type": "Feature",
      "properties": {
        "norad_id": 66881,
        "name": "STARLINK-35860",
        "group": "last-30-days",
        "lat": -43.400373571036496,
        "lon": -99.03112202236161,
        "alt_km": 352.17512733750664,
        "timestamp": "2025-12-20T07:33:49.515185+00:00",
        "meta_object_name": "STARLINK-35860",
        "meta_object_id": "2025-283D",
        "meta_epoch": "2025-12-19T22:00:01.999584",
        "meta_mean_motion": 15.75152248,
        "meta_eccentricity": 0.0001099,
        "meta_inclination": 53.1567,
        "meta_ra_of_asc_node": 37.7881,
        "meta_arg_of_pericenter": 96.98,
        "meta_mean_anomaly": 42.0404,
        "meta_ephemeris_type": 0,
        "meta_classification_type": "U",
        "meta_norad_cat_id": 66881,
        "meta_element_set_no": 999,
        "meta_rev_at_epoch": 358,
        "meta_bstar": -0.008627963,
        "meta_mean_motion_dot": -0.01171969,
        "meta_mean_motion_ddot": 0,
        "tle_line1": "1 66881U 25283D   25353.91668981 -.01171969  00000+0 -86280-2 0  9996",
        "tle_line2": "2 66881  53.1567  37.7881 0001099  96.9800  42.0404 15.75152248  3583"
      },
      "geometry": {
        "type": "Point",
        "coordinates": [
          -99.03112202236161,
          -43.400373571036496
        ]
      }
    },
    {
      "type": "Feature",
      "properties": {
        "norad_id": 66882,
        "name": "STARLINK-35912",
        "group": "last-30-days",
        "lat": -44.45506517771247,
        "lon": -96.82860300389788,
        "alt_km": 352.33632001687056,
        "timestamp": "2025-12-20T07:33:49.515199+00:00",
        "meta_object_name": "STARLINK-35912",
        "meta_object_id": "2025-283E",
        "meta_epoch": "2025-12-19T22:00:01.999584",
        "meta_mean_motion": 15.75041047,
        "meta_eccentricity": 9.084e-05,
        "meta_inclination": 53.1568,
        "meta_ra_of_asc_node": 37.785,
        "meta_arg_of_pericenter": 75.9051,
        "meta_mean_anomaly": 65.1325,
        "meta_ephemeris_type": 0,
        "meta_classification_type": "U",
        "meta_norad_cat_id": 66882,
        "meta_element_set_no": 999,
        "meta_rev_at_epoch": 358,
        "meta_bstar": -0.0079730454,
        "meta_mean_motion_dot": -0.01087303,
        "meta_mean_motion_ddot": 0,
        "tle_line1": "1 66882U 25283E   25353.91668981 -.01087303  00000+0 -79730-2 0  9997",
        "tle_line2": "2 66882  53.1568  37.7850 0000908  75.9051  65.1325 15.75041047  3586"
      },
      "geometry": {
        "type": "Point",
        "coordinates": [
          -96.82860300389788,
          -44.45506517771247
        ]
      }
    }
  ]
}